OBJECT_NAME,OBJECT_ID,EPOCH,MEAN_MOTION,ECCENTRICITY,INCLINATION,RA_OF_ASC_NODE,ARG_OF_PERICENTER,MEAN_ANOMALY,EPHEMERIS_TYPE,CLASSIFICATION_TYPE,NORAD_CAT_ID,ELEMENT_SET_NO,REV_AT_EPOCH,BSTAR,MEAN_MOTION_DOT,MEAN_MOTION_DDOT
STARLINK-31724,2024-074W,2026-06-30T22:26:06.993024,15.27583784,.0000977,43.0009,27.9422,257.9541,102.1201,0,U,59554,999,12374,.69278E-4,.1645E-4,0
STARLINK-31730,2024-074X,2026-06-30T23:05:45.407040,15.27579740,.0001118,43.0018,64.1807,266.4063,93.6661,0,U,59555,999,12333,.21819E-4,.338E-5,0
STARLINK-31718,2024-074Y,2026-06-29T23:16:45.390720,15.27584090,.00015277,43.0011,69.6341,267.2828,92.7849,0,U,59556,999,12318,.6746133E-4,.1595E-4,0
STARLINK-31747,2024-076A,2026-06-30T23:52:59.207808,15.27584224,.0001091,43.0014,78.5274,263.4901,96.5827,0,U,59564,999,12394,.49941E-4,.1113E-4,0
STARLINK-31388,2024-076B,2026-07-01T00:39:00.300384,15.27585057,.0001394,43.0013,89.1632,268.9667,91.1025,0,U,59565,999,12383,.62896E-4,.1469E-4,0
STARLINK-31332,2024-076C,2026-06-30T19:08:25.793664,15.27588648,.00017963,43.0025,90.0040,293.7415,66.3248,0,U,59566,999,12380,-.93667086E-4,-.284E-4,0
STARLINK-31689,2024-076D,2026-07-01T00:30:26.936640,15.27585199,.0001449,43.0026,85.6441,275.8046,84.2640,0,U,59567,999,12387,.7359E-4,.1764E-4,0
STARLINK-31471,2024-076E,2026-06-30T19:17:41.493408,15.27571450,.00010162,43.0021,90.0487,261.3077,98.7660,0,U,59568,999,12371,-.25281944E-4,-.957E-5,0
STARLINK-31470,2024-076F,2026-07-01T00:21:11.706912,15.27581810,.0002959,43.0038,85.5985,291.0258,69.0277,0,U,59569,999,12378,-.44092E-4,-.1476E-4,0
STARLINK-31587,2024-076G,2026-07-01T00:33:27.501408,15.27578767,.0002848,43.0058,89.1206,280.0799,79.9731,0,U,59570,999,12385,.23474E-4,.383E-5,0
STARLINK-31606,2024-076H,2026-07-01T04:00:03.000096,15.27556223,.0001477,43.0015,87.7384,268.1541,42.3497,0,U,59571,999,584,.23909E-2,.66073E-3,0
STARLINK-31666,2024-076J,2026-07-01T00:12:38.776032,15.27585944,.0001335,43.0036,82.0656,270.5132,89.5567,0,U,59572,999,12391,.6056E-4,.1405E-4,0
STARLINK-31683,2024-076K,2026-06-30T19:19:30.943200,15.27639741,.00010354,43.0029,90.0584,284.3585,75.7151,0,U,59573,999,12380,-.4681489E-3,-.13145E-3,0
STARLINK-31751,2024-076L,2026-07-01T00:50:04.749216,15.27537596,.0001608,43.0031,89.2181,284.6703,75.3970,0,U,59574,999,12383,.41946E-3,.11283E-3,0
STARLINK-31510,2024-076M,2026-07-01T00:24:53.989056,15.27582160,.0001502,42.9997,85.6173,269.5416,90.5263,0,U,59575,999,12387,.23441E-4,.383E-5,0
STARLINK-31663,2024-076N,2026-07-01T00:44:33.419040,15.27581230,.000147,43.0029,89.1714,276.6865,83.3819,0,U,59576,999,12383,.39629E-4,.828E-5,0
STARLINK-31692,2024-076P,2026-07-01T00:00:00.998784,15.34603909,.0008539,43.0000,87.1518,213.3360,163.4142,0,U,59577,999,588,.13322E-2,.4568E-3,0
STARLINK-31685,2024-076Q,2026-07-01T01:10:14.229120,15.27591934,.0002457,43.0048,88.4450,284.0099,76.0479,0,U,59578,999,12384,.23329E-3,.6165E-4,0
STARLINK-31686,2024-076R,2026-07-01T01:15:47.723616,15.27581158,.0000994,43.0030,88.4751,271.3040,88.7697,0,U,59579,999,12384,.36669E-4,.747E-5,0
STARLINK-31668,2024-076S,2026-06-30T23:24:59.419008,15.27579065,.0001107,43.0041,88.7642,262.2944,97.7782,0,U,59580,999,12383,.44542E-4,.964E-5,0
STARLINK-31690,2024-076T,2026-06-30T19:13:59.058336,15.27575392,.00012256,43.0032,90.0290,272.6528,87.4183,0,U,59581,999,12381,.4100165E-5,-.149E-5,0
STARLINK-31701,2024-076U,2026-07-01T00:18:44.171136,15.27625751,.0000909,43.0015,89.0367,260.9678,99.1071,0,U,59582,999,12374,.19964E-2,.55163E-3,0
STARLINK-31697,2024-076V,2026-06-30T19:12:07.687008,15.27580359,.00014438,43.0036,90.0098,280.1715,79.8974,0,U,59583,999,12371,.31028432E-4,.592E-5,0
STARLINK-31662,2024-076W,2026-07-01T00:27:54.210816,15.27580466,.0001418,42.9996,89.0816,267.6968,92.3721,0,U,59584,999,12383,.46205E-4,.101E-4,0
STARLINK-31702,2024-076X,2026-07-01T00:51:57.102048,15.27598115,.000252,43.0043,89.2138,284.1558,75.9013,0,U,59585,999,12383,-.93871E-4,-.2847E-4,0
STARLINK-31704,2024-076Y,2026-07-01T04:00:03.000096,15.53171093,.0025298,42.9892,30.2331,264.6175,343.7007,0,U,59586,999,585,.22748E-2,.150921E-2,0
STARLINK-31770,2024-080A,2026-06-30T23:12:31.818816,15.27582291,.000043,42.9954,118.4590,171.5979,188.4880,0,U,59601,999,12306,-.52188E-4,-.1697E-4,0
STARLINK-31778,2024-080B,2026-07-01T02:23:23.153856,15.27581474,.0001333,43.0000,114.2778,270.5617,89.5081,0,U,59602,999,12191,.90628E-4,.2233E-4,0
STARLINK-31776,2024-080C,2026-07-01T02:18:17.450784,15.27575855,.0001071,43.0017,121.1687,222.1989,137.8780,0,U,59603,999,12183,.29633E-4,.553E-5,0
STARLINK-31765,2024-080D,2026-06-30T19:22:21.123552,15.27571961,.00013655,43.0010,115.5210,248.8850,111.1856,0,U,59604,999,12187,.57644817E-4,.1324E-4,0
