STARLINK-31724          
1 59554U 24074W   26181.93480316  .00001645  00000+0  69278-4 0  9998
2 59554  43.0009  27.9422 0000977 257.9541 102.1201 15.27583784123742
STARLINK-31730          
1 59555U 24074X   26181.96233110  .00000338  00000+0  21819-4 0  9997
2 59555  43.0018  64.1807 0001118 266.4063  93.6661 15.27579740123331
STARLINK-31718          
1 59556U 24074Y   26180.96996980  .00001595  00000+0  67461-4 0  9997
2 59556  43.0011  69.6341 0001527 267.2828  92.7849 15.27584090123185
STARLINK-31747          
1 59564U 24076A   26181.99512972  .00001113  00000+0  49941-4 0  9996
2 59564  43.0014  78.5274 0001091 263.4901  96.5827 15.27584224123948
STARLINK-31388          
1 59565U 24076B   26182.02708681  .00001469  00000+0  62896-4 0  9994
2 59565  43.0013  89.1632 0001394 268.9667  91.1025 15.27585057123833
STARLINK-31332          
1 59566U 24076C   26181.79752076 -.00002840  00000+0 -93667-4 0  9991
2 59566  43.0025  90.0040 0001796 293.7415  66.3248 15.27588648123801
STARLINK-31689          
1 59567U 24076D   26182.02114510  .00001764  00000+0  73590-4 0  9999
2 59567  43.0026  85.6441 0001449 275.8046  84.2640 15.27585199123874
STARLINK-31471          
1 59568U 24076E   26181.80395247 -.00000957  00000+0 -25282-4 0  9993
2 59568  43.0021  90.0487 0001016 261.3077  98.7660 15.27571450123714
STARLINK-31470          
1 59569U 24076F   26182.01471883 -.00001476  00000+0 -44092-4 0  9996
2 59569  43.0038  85.5985 0002959 291.0258  69.0277 15.27581810123786
STARLINK-31587          
1 59570U 24076G   26182.02323497  .00000383  00000+0  23474-4 0  9991
2 59570  43.0058  89.1206 0002848 280.0799  79.9731 15.27578767123851
STARLINK-31606          
1 59571U 24076H   26182.16670139  .00066073  00000+0  23909-2 0  9994
2 59571  43.0015  87.7384 0001477 268.1541  42.3497 15.27556223  5849
STARLINK-31666          
1 59572U 24076J   26182.00878213  .00001405  00000+0  60560-4 0  9995
2 59572  43.0036  82.0656 0001335 270.5132  89.5567 15.27585944123911
STARLINK-31683          
1 59573U 24076K   26181.80521925 -.00013145  00000+0 -46815-3 0  9990
2 59573  43.0029  90.0584 0001035 284.3585  75.7151 15.27639741123804
STARLINK-31751          
1 59574U 24076L   26182.03477719  .00011283  00000+0  41946-3 0  9997
2 59574  43.0031  89.2181 0001608 284.6703  75.3970 15.27537596123835
STARLINK-31510          
1 59575U 24076M   26182.01729154  .00000383  00000+0  23441-4 0  9999
2 59575  42.9997  85.6173 0001502 269.5416  90.5263 15.27582160123877
STARLINK-31663          
1 59576U 24076N   26182.03094235  .00000828  00000+0  39629-4 0  9996
2 59576  43.0029  89.1714 0001470 276.6865  83.3819 15.27581230123837
STARLINK-31692          
1 59577U 24076P   26182.00001156  .00045680  00000+0  13322-2 0  9999
2 59577  43.0000  87.1518 0008539 213.3360 163.4142 15.34603909  5887
STARLINK-31685          
1 59578U 24076Q   26182.04877580  .00006165  00000+0  23329-3 0  9990
2 59578  43.0048  88.4450 0002457 284.0099  76.0479 15.27591934123841
STARLINK-31686          
1 59579U 24076R   26182.05263569  .00000747  00000+0  36669-4 0  9990
2 59579  43.0030  88.4751 0000994 271.3040  88.7697 15.27581158123845
STARLINK-31668          
1 59580U 24076S   26181.97568772  .00000964  00000+0  44542-4 0  9996
2 59580  43.0041  88.7642 0001107 262.2944  97.7782 15.27579065123838
STARLINK-31690          
1 59581U 24076T   26181.80137799 -.00000149  00000+0  41002-5 0  9995
2 59581  43.0032  90.0290 0001225 272.6528  87.4183 15.27575392123816
STARLINK-31701          
1 59582U 24076U   26182.01301124  .00055163  00000+0  19964-2 0  9999
2 59582  43.0015  89.0367 0000909 260.9678  99.1071 15.27625751123748
STARLINK-31697          
1 59583U 24076V   26181.80008897  .00000592  00000+0  31028-4 0  9990
2 59583  43.0036  90.0098 0001443 280.1715  79.8974 15.27580359123713
STARLINK-31662          
1 59584U 24076W   26182.01937744  .00001010  00000+0  46205-4 0  9996
2 59584  42.9996  89.0816 0001418 267.6968  92.3721 15.27580466123837
STARLINK-31702          
1 59585U 24076X   26182.03607757 -.00002847  00000+0 -93871-4 0  9999
2 59585  43.0043  89.2138 0002520 284.1558  75.9013 15.27598115123837
STARLINK-31704          
1 59586U 24076Y   26182.16670139  .00150921  00000+0  22748-2 0  9996
2 59586  42.9892  30.2331 0025298 264.6175 343.7007 15.53171093  5855
STARLINK-31770          
1 59601U 24080A   26181.96703494 -.00001697  00000+0 -52188-4 0  9997
2 59601  42.9954 118.4590 0000430 171.5979 188.4880 15.27582291123061
STARLINK-31778          
1 59602U 24080B   26182.09957354  .00002233  00000+0  90628-4 0  9995
2 59602  43.0000 114.2778 0001333 270.5617  89.5081 15.27581474121918
STARLINK-31776          
1 59603U 24080C   26182.09603531  .00000553  00000+0  29633-4 0  9992
2 59603  43.0017 121.1687 0001071 222.1989 137.8780 15.27575855121837
STARLINK-31765          
1 59604U 24080D   26181.80718893  .00001324  00000+0  57645-4 0  9990
2 59604  43.0010 115.5210 0001365 248.8850 111.1856 15.27571961121875
